[
    {
        "Altitude(m)": 558431.1010915958,
        "Argument of Periapsis(deg)": 0.0,
        "Eccentricity": 0.0,
        "Inclination(deg)": 53.0,
        "Latitude(deg)": 46.73403820218544,
        "Longitude(deg)": -17.198355196440225,
        "Mean Anomaly(deg)": 65.45450000000001,
        "RAAN(deg)": 30.0,
        "Satellite Name": "Starlink Shell 1 136",
        "Satellite Number": 136,
        "Semi-Major Axis(m)": 6931778.249405717,
        "Time(s)": 0
    },
    {
        "Altitude(m)": 558499.6110990244,
        "Argument of Periapsis(deg)": 0.00034857847951123687,
        "Eccentricity": 0.0,
        "Inclination(deg)": 53.0,
        "Latitude(deg)": 47.034524477592626,
        "Longitude(deg)": -16.43638081352851,
        "Mean Anomaly(deg)": 66.08133120355672,
        "RAAN(deg)": 29.999481229922527,
        "Satellite Name": "Starlink Shell 1 136",
        "Satellite Number": 136,
        "Semi-Major Axis(m)": 6931778.249405717,
        "Time(s)": 10
    },
    {
        "Altitude(m)": 558566.9025981418,
        "Argument of Periapsis(deg)": 0.0006971569590224737,
        "Eccentricity": 0.0,
        "Inclination(deg)": 53.0,
        "Latitude(deg)": 47.32929959973013,
        "Longitude(deg)": -15.665432731037887,
        "Mean Anomaly(deg)": 66.70816240711342,
        "RAAN(deg)": 29.998962459845053,
        "Satellite Name": "Starlink Shell 1 136",
        "Satellite Number": 136,
        "Semi-Major Axis(m)": 6931778.249405717,
        "Time(s)": 20
    },
    {
        "Altitude(m)": 558632.9340908311,
        "Argument of Periapsis(deg)": 0.0010457354385337105,
        "Eccentricity": 0.0,
        "Inclination(deg)": 53.0,
        "Latitude(deg)": 47.61824163275109,
        "Longitude(deg)": -14.885494645606855,
        "Mean Anomaly(deg)": 67.33499361067014,
        "RAAN(deg)": 29.99844368976758,
        "Satellite Name": "Starlink Shell 1 136",
        "Satellite Number": 136,
        "Semi-Major Axis(m)": 6931778.249405717,
        "Time(s)": 30
    },
    {
        "Altitude(m)": 558697.6649226928,
        "Argument of Periapsis(deg)": 0.0013943139180449475,
        "Eccentricity": 0.0,
        "Inclination(deg)": 53.0,
        "Latitude(deg)": 47.90122779364363,
        "Longitude(deg)": -14.096559825140087,
        "Mean Anomaly(deg)": 67.96182481422684,
        "RAAN(deg)": 29.99792491969011,
        "Satellite Name": "Starlink Shell 1 136",
        "Satellite Number": 136,
        "Semi-Major Axis(m)": 6931778.249405717,
        "Time(s)": 40
    },
    {
        "Altitude(m)": 558761.0553031478,
        "Argument of Periapsis(deg)": 0.0017428923975561844,
        "Eccentricity": 0.0,
        "Inclination(deg)": 53.0,
        "Latitude(deg)": 48.17813459319416,
        "Longitude(deg)": -13.298632676572964,
        "Mean Anomaly(deg)": 68.58865601778358,
        "RAAN(deg)": 29.99740614961263,
        "Satellite Name": "Starlink Shell 1 136",
        "Satellite Number": 136,
        "Semi-Major Axis(m)": 6931778.249405717,
        "Time(s)": 50
    },
    {
        "Altitude(m)": 558823.0663251433,
        "Argument of Periapsis(deg)": 0.002091470877067421,
        "Eccentricity": 0.0,
        "Inclination(deg)": 53.0,
        "Latitude(deg)": 48.448837988013246,
        "Longitude(deg)": -12.491728798996691,
        "Mean Anomaly(deg)": 69.21548722134028,
        "RAAN(deg)": 29.99688737953516,
        "Satellite Name": "Starlink Shell 1 136",
        "Satellite Number": 136,
        "Semi-Major Axis(m)": 6931778.249405717,
        "Time(s)": 60
    },
    {
        "Altitude(m)": 558883.6599843671,
        "Argument of Periapsis(deg)": 0.0024400493565786582,
        "Eccentricity": 0.0,
        "Inclination(deg)": 53.0,
        "Latitude(deg)": 48.71321354375319,
        "Longitude(deg)": -11.675875031575782,
        "Mean Anomaly(deg)": 69.842318424897,
        "RAAN(deg)": 29.99636860945769,
        "Satellite Name": "Starlink Shell 1 136",
        "Satellite Number": 136,
        "Semi-Major Axis(m)": 6931778.249405717,
        "Time(s)": 70
    },
    {
        "Altitude(m)": 558942.7991980232,
        "Argument of Periapsis(deg)": 0.002788627836089895,
        "Eccentricity": 0.0,
        "Inclination(deg)": 53.0,
        "Latitude(deg)": 48.97113660957968,
        "Longitude(deg)": -10.8511110054018,
        "Mean Anomaly(deg)": 70.4691496284537,
        "RAAN(deg)": 29.995849839380213,
        "Satellite Name": "Starlink Shell 1 136",
        "Satellite Number": 136,
        "Semi-Major Axis(m)": 6931778.249405717,
        "Time(s)": 80
    },
    {
        "Altitude(m)": 559000.4478231217,
        "Argument of Periapsis(deg)": 0.0031372063156011316,
        "Eccentricity": 0.0,
        "Inclination(deg)": 53.0,
        "Latitude(deg)": 49.2224825038947,
        "Longitude(deg)": -10.017489169525664,
        "Mean Anomaly(deg)": 71.09598083201045,
        "RAAN(deg)": 29.995331069302743,
        "Satellite Name": "Starlink Shell 1 136",
        "Satellite Number": 136,
        "Semi-Major Axis(m)": 6931778.249405717,
        "Time(s)": 90
    },
    {
        "Altitude(m)": 559056.5706743121,
        "Argument of Periapsis(deg)": 0.0034857847951123688,
        "Eccentricity": 0.0,
        "Inclination(deg)": 53.0,
        "Latitude(deg)": 49.46712671122018,
        "Longitude(deg)": -9.17507479975928,
        "Mean Anomaly(deg)": 71.72281203556715,
        "RAAN(deg)": 29.994812299225266,
        "Satellite Name": "Starlink Shell 1 136",
        "Satellite Number": 136,
        "Semi-Major Axis(m)": 6931778.249405717,
        "Time(s)": 100
    },
    {
        "Altitude(m)": 559111.1335411909,
        "Argument of Periapsis(deg)": 0.003834363274623606,
        "Eccentricity": 0.0,
        "Inclination(deg)": 53.0,
        "Latitude(deg)": 49.70494509006355,
        "Longitude(deg)": -8.32394749859104,
        "Mean Anomaly(deg)": 72.34964323912386,
        "RAAN(deg)": 29.994293529147797,
        "Satellite Name": "Starlink Shell 1 136",
        "Satellite Number": 136,
        "Semi-Major Axis(m)": 6931778.249405717,
        "Time(s)": 110
    },
    {
        "Altitude(m)": 559164.1032051778,
        "Argument of Periapsis(deg)": 0.004182941754134842,
        "Eccentricity": 0.0,
        "Inclination(deg)": 53.0,
        "Latitude(deg)": 49.93581409149978,
        "Longitude(deg)": -7.464201155722209,
        "Mean Anomaly(deg)": 72.97647444268055,
        "RAAN(deg)": 29.993774759070327,
        "Satellite Name": "Starlink Shell 1 136",
        "Satellite Number": 136,
        "Semi-Major Axis(m)": 6931778.249405717,
        "Time(s)": 120
    },
    {
        "Altitude(m)": 559215.4474558146,
        "Argument of Periapsis(deg)": 0.004531520233646079,
        "Eccentricity": 0.0,
        "Inclination(deg)": 53.0,
        "Latitude(deg)": 50.159610988095636,
        "Longitude(deg)": -6.595943877158762,
        "Mean Anomaly(deg)": 73.6033056462373,
        "RAAN(deg)": 29.99325598899285,
        "Satellite Name": "Starlink Shell 1 136",
        "Satellite Number": 136,
        "Semi-Major Axis(m)": 6931778.249405717,
        "Time(s)": 130
    },
    {
        "Altitude(m)": 559265.1351066332,
        "Argument of Periapsis(deg)": 0.0048800987131573164,
        "Eccentricity": 0.0,
        "Inclination(deg)": 53.0,
        "Latitude(deg)": 50.376214112695074,
        "Longitude(deg)": -5.71929939064926,
        "Mean Anomaly(deg)": 74.23013684979401,
        "RAAN(deg)": 29.99273721891538,
        "Satellite Name": "Starlink Shell 1 136",
        "Satellite Number": 136,
        "Semi-Major Axis(m)": 6931778.249405717,
        "Time(s)": 140
    },
    {
        "Altitude(m)": 559313.1360104568,
        "Argument of Periapsis(deg)": 0.005228677192668553,
        "Eccentricity": 0.0,
        "Inclination(deg)": 53.0,
        "Latitude(deg)": 50.58550310648086,
        "Longitude(deg)": -4.834406896537367,
        "Mean Anomaly(deg)": 74.85696805335073,
        "RAAN(deg)": 29.99221844883791,
        "Satellite Name": "Starlink Shell 1 136",
        "Satellite Number": 136,
        "Semi-Major Axis(m)": 6931778.249405717,
        "Time(s)": 150
    },
    {
        "Altitude(m)": 559359.4210741991,
        "Argument of Periapsis(deg)": 0.00557725567217979,
        "Eccentricity": 0.0,
        "Inclination(deg)": 53.0,
        "Latitude(deg)": 50.78735917560423,
        "Longitude(deg)": -3.941420871672008,
        "Mean Anomaly(deg)": 75.48379925690745,
        "RAAN(deg)": 29.99169967876043,
        "Satellite Name": "Starlink Shell 1 136",
        "Satellite Number": 136,
        "Semi-Major Axis(m)": 6931778.249405717,
        "Time(s)": 160
    },
    {
        "Altitude(m)": 559403.9622731396,
        "Argument of Periapsis(deg)": 0.0059258341516910265,
        "Eccentricity": 0.0,
        "Inclination(deg)": 53.0,
        "Latitude(deg)": 50.98166535555563,
        "Longitude(deg)": -3.0405123340271296,
        "Mean Anomaly(deg)": 76.11063046046415,
        "RAAN(deg)": 29.99118090868296,
        "Satellite Name": "Starlink Shell 1 136",
        "Satellite Number": 136,
        "Semi-Major Axis(m)": 6931778.249405717,
        "Time(s)": 170
    },
    {
        "Altitude(m)": 559446.7326646631,
        "Argument of Periapsis(deg)": 0.006274412631202263,
        "Eccentricity": 0.0,
        "Inclination(deg)": 53.0,
        "Latitude(deg)": 51.16830678233853,
        "Longitude(deg)": -2.1318685371475485,
        "Mean Anomaly(deg)": 76.73746166402087,
        "RAAN(deg)": 29.990662138605487,
        "Satellite Name": "Starlink Shell 1 136",
        "Satellite Number": 136,
        "Semi-Major Axis(m)": 6931778.249405717,
        "Time(s)": 180
    }
]